FENGYUN 1C DEB          
1 32168U 99025CTN 17345.26186539  .00000102  00000-0  13771-3 0  9990
2 32168 101.6598  93.4622 0292723  61.1121 301.9054 13.69270480233319
